[{"OBJECT_NAME":"STARLINK-2700","OBJECT_ID":"2021-040D","EPOCH":"2026-03-10T00:00:02.999808","MEAN_MOTION":15.11991439,"ECCENTRICITY":5.041e-5,"INCLINATION":53.0768,"RA_OF_ASC_NODE":150.1688,"ARG_OF_PERICENTER":97.2638,"MEAN_ANOMALY":273.4483,"EPHEMERIS_TYPE":0,"CLASSIFICATION_TYPE":"U","NORAD_CAT_ID":48431,"ELEMENT_SET_NO":999,"REV_AT_EPOCH":579,"BSTAR":0.078428308,"MEAN_MOTION_DOT":0.01495167,"MEAN_MOTION_DDOT":0},{"OBJECT_NAME":"YAM-6","OBJECT_ID":"2024-043AE","EPOCH":"2026-03-09T22:02:57.551424","MEAN_MOTION":15.35277504,"ECCENTRICITY":0.00081711,"INCLINATION":97.5396,"RA_OF_ASC_NODE":207.5012,"ARG_OF_PERICENTER":216.2976,"MEAN_ANOMALY":143.7714,"EPHEMERIS_TYPE":0,"CLASSIFICATION_TYPE":"U","NORAD_CAT_ID":59126,"ELEMENT_SET_NO":999,"REV_AT_EPOCH":11207,"BSTAR":0.00038647304,"MEAN_MOTION_DOT":0.00013176,"MEAN_MOTION_DDOT":0}]
